[{"OBJECT_NAME":"STARLINK-3301","OBJECT_ID":"2021-125P","EPOCH":"2026-03-09T19:30:54.921888","MEAN_MOTION":15.08810886,"ECCENTRICITY":0.00016717,"INCLINATION":53.2168,"RA_OF_ASC_NODE":248.5679,"ARG_OF_PERICENTER":83.0504,"MEAN_ANOMALY":277.0678,"EPHEMERIS_TYPE":0,"CLASSIFICATION_TYPE":"U","NORAD_CAT_ID":50169,"ELEMENT_SET_NO":999,"REV_AT_EPOCH":23662,"BSTAR":0.00037981881,"MEAN_MOTION_DOT":5.757e-5,"MEAN_MOTION_DDOT":0},{"OBJECT_NAME":"STRIX-2","OBJECT_ID":"2024-248A","EPOCH":"2026-03-09T23:00:54.819648","MEAN_MOTION":15.07630986,"ECCENTRICITY":0.00151844,"INCLINATION":97.6197,"RA_OF_ASC_NODE":25.3276,"ARG_OF_PERICENTER":319.5195,"MEAN_ANOMALY":40.4902,"EPHEMERIS_TYPE":0,"CLASSIFICATION_TYPE":"U","NORAD_CAT_ID":62406,"ELEMENT_SET_NO":999,"REV_AT_EPOCH":6663,"BSTAR":0.00066021351,"MEAN_MOTION_DOT":0.00010025,"MEAN_MOTION_DDOT":0}]
